[{"OBJECT_NAME":"STARLINK-30316","OBJECT_ID":"2023-124L","EPOCH":"2026-03-09T16:36:06.812064","MEAN_MOTION":15.30184915,"ECCENTRICITY":0.00011766,"INCLINATION":53.161,"RA_OF_ASC_NODE":207.0679,"ARG_OF_PERICENTER":90.1891,"MEAN_ANOMALY":269.9245,"EPHEMERIS_TYPE":0,"CLASSIFICATION_TYPE":"U","NORAD_CAT_ID":57673,"ELEMENT_SET_NO":999,"REV_AT_EPOCH":14356,"BSTAR":-1.2465199e-5,"MEAN_MOTION_DOT":-7.28e-6,"MEAN_MOTION_DDOT":0},{"OBJECT_NAME":"TOMORROW-S2","OBJECT_ID":"2024-149T","EPOCH":"2026-03-09T18:02:42.746496","MEAN_MOTION":15.30674935,"ECCENTRICITY":0.0001648,"INCLINATION":97.3857,"RA_OF_ASC_NODE":150.0385,"ARG_OF_PERICENTER":234.3331,"MEAN_ANOMALY":125.7757,"EPHEMERIS_TYPE":0,"CLASSIFICATION_TYPE":"U","NORAD_CAT_ID":60485,"ELEMENT_SET_NO":999,"REV_AT_EPOCH":8686,"BSTAR":0.00027683033,"MEAN_MOTION_DOT":8.133e-5,"MEAN_MOTION_DDOT":0}]
