STARLINK-30316          
1 57673U 23124L   26068.69174551 -.00000728  00000+0 -12465-4 0  9990
2 57673  53.1610 207.0679 0001177  90.1891 269.9245 15.30184915143564
TOMORROW-S2             
1 60485U 24149T   26068.75188364  .00008133  00000+0  27683-3 0  9990
2 60485  97.3857 150.0385 0001648 234.3331 125.7757 15.30674935 86869
